0 COSMOS 970 DEB
1 10567U 77121J   13280.70152485 -.00000019  00000-0  81030-4 0  9080
2 10567 065.7971 033.0198 0095886 133.9187 332.7166 13.54892670769980
0 COSMOS 970 DEB
1 10567U 77121J   13283.12685888 -.00000025  00000-0  72903-4 0  9094
2 10567 065.7973 027.2211 0095726 132.7030 282.6370 13.54893358770313
0 COSMOS 970 DEB
1 10567U 77121J   13285.34739685 -.00000026  00000-0  71418-4 0  9108
2 10567 065.7975 021.9123 0095601 131.5875 313.6415 13.54893548770613
0 COSMOS 970 DEB
1 10567U 77121J   13287.48879479  .00000000  00000-0  10867-3 0  9113
2 10567 065.7975 016.7930 0095473 130.5203 318.6224 13.54893481770903
0 COSMOS 970 DEB
1 10567U 77121J   13289.77648215  .00000013  00000-0  12588-3 0  9126
2 10567 065.7971 011.3236 0095354 129.3491 317.1832 13.54894036771213
0 COSMOS 970 DEB
1 10567U 77121J   13292.20126370 -.00000007  00000-0  98024-4 0  9136
2 10567 065.7967 005.5262 0095205 128.1250 264.4279 13.54894532771543
0 COSMOS 970 DEB
1 10567U 77121J   13294.50379424 -.00000030  00000-0  66264-4 0  9149
2 10567 065.7965 000.0211 0095050 126.9645 335.3774 13.54894844771855
